[{"OBJECT_NAME":"GECAM-A","OBJECT_ID":"2020-094A","EPOCH":"2026-02-27T03:21:27.347040","MEAN_MOTION":15.0033434,"ECCENTRICITY":0.00107,"INCLINATION":28.9961,"RA_OF_ASC_NODE":20.3521,"ARG_OF_PERICENTER":243.6219,"MEAN_ANOMALY":116.328,"EPHEMERIS_TYPE":0,"CLASSIFICATION_TYPE":"U","NORAD_CAT_ID":47234,"ELEMENT_SET_NO":999,"REV_AT_EPOCH":28514,"BSTAR":0.00017329,"MEAN_MOTION_DOT":2.379e-5,"MEAN_MOTION_DDOT":0},{"OBJECT_NAME":"STARLINK-32584","OBJECT_ID":"2024-225S","EPOCH":"2026-03-09T16:15:05.296032","MEAN_MOTION":14.98336436,"ECCENTRICITY":0.00034917,"INCLINATION":70.0023,"RA_OF_ASC_NODE":164.4033,"ARG_OF_PERICENTER":271.5986,"MEAN_ANOMALY":88.4773,"EPHEMERIS_TYPE":0,"CLASSIFICATION_TYPE":"U","NORAD_CAT_ID":62179,"ELEMENT_SET_NO":999,"REV_AT_EPOCH":6987,"BSTAR":0.00037308826,"MEAN_MOTION_DOT":4.362e-5,"MEAN_MOTION_DDOT":0}]
