GECAM-A                 
1 47234U 20094A   26058.13989985  .00002379  00000+0  17329-3 0  9993
2 47234  28.9961  20.3521 0010700 243.6219 116.3280 15.00334340285149
STARLINK-32584          
1 62179U 24225S   26068.67714462  .00004362  00000+0  37309-3 0  9998
2 62179  70.0023 164.4033 0003492 271.5986  88.4773 14.98336436 69870
